[{"OBJECT_NAME":"STARLINK-5424","OBJECT_ID":"2022-175BF","EPOCH":"2026-02-19T13:44:48.090048","MEAN_MOTION":15.08866339,"ECCENTRICITY":0.0001295,"INCLINATION":53.2174,"RA_OF_ASC_NODE":105.495,"ARG_OF_PERICENTER":101.2637,"MEAN_ANOMALY":258.8501,"EPHEMERIS_TYPE":0,"CLASSIFICATION_TYPE":"U","NORAD_CAT_ID":54811,"ELEMENT_SET_NO":999,"REV_AT_EPOCH":17746,"BSTAR":0.00074092,"MEAN_MOTION_DOT":0.00011532,"MEAN_MOTION_DDOT":0},{"OBJECT_NAME":"STARLINK-5382","OBJECT_ID":"2022-177A","EPOCH":"2026-02-19T11:37:57.658368","MEAN_MOTION":15.02538003,"ECCENTRICITY":0.00010698,"INCLINATION":43.0015,"RA_OF_ASC_NODE":232.5279,"ARG_OF_PERICENTER":255.2231,"MEAN_ANOMALY":104.8493,"EPHEMERIS_TYPE":0,"CLASSIFICATION_TYPE":"U","NORAD_CAT_ID":54820,"ELEMENT_SET_NO":999,"REV_AT_EPOCH":17421,"BSTAR":7.876546e-6,"MEAN_MOTION_DOT":-9.7e-7,"MEAN_MOTION_DDOT":0},{"OBJECT_NAME":"STARLINK-5385","OBJECT_ID":"2022-177B","EPOCH":"2026-02-19T12:56:06.408384","MEAN_MOTION":15.02537125,"ECCENTRICITY":0.00011243,"INCLINATION":43.0021,"RA_OF_ASC_NODE":232.0787,"ARG_OF_PERICENTER":261.2702,"MEAN_ANOMALY":98.8013,"EPHEMERIS_TYPE":0,"CLASSIFICATION_TYPE":"U","NORAD_CAT_ID":54821,"ELEMENT_SET_NO":999,"REV_AT_EPOCH":17422,"BSTAR":3.1385008e-5,"MEAN_MOTION_DOT":2.2e-6,"MEAN_MOTION_DDOT":0},{"OBJECT_NAME":"STARLINK-5101","OBJECT_ID":"2022-177C","EPOCH":"2026-02-19T12:49:42.692160","MEAN_MOTION":15.02535673,"ECCENTRICITY":0.0001108,"INCLINATION":43.0013,"RA_OF_ASC_NODE":232.0404,"ARG_OF_PERICENTER":255.5632,"MEAN_ANOMALY":104.5087,"EPHEMERIS_TYPE":0,"CLASSIFICATION_TYPE":"U","NORAD_CAT_ID":54822,"ELEMENT_SET_NO":999,"REV_AT_EPOCH":17422,"BSTAR":3.3527823e-5,"MEAN_MOTION_DOT":2.49e-6,"MEAN_MOTION_DDOT":0},{"OBJECT_NAME":"STARLINK-5106","OBJECT_ID":"2022-177D","EPOCH":"2026-02-19T13:08:53.456352","MEAN_MOTION":15.02535283,"ECCENTRICITY":9.54e-5,"INCLINATION":42.9987,"RA_OF_ASC_NODE":232.137,"ARG_OF_PERICENTER":188.0486,"MEAN_ANOMALY":172.0341,"EPHEMERIS_TYPE":0,"CLASSIFICATION_TYPE":"U","NORAD_CAT_ID":54823,"ELEMENT_SET_NO":999,"REV_AT_EPOCH":17422,"BSTAR":2.0207e-5,"MEAN_MOTION_DOT":6.9e-7,"MEAN_MOTION_DDOT":0},{"OBJECT_NAME":"STARLINK-4643","OBJECT_ID":"2022-177E","EPOCH":"2026-02-19T13:04:05.919744","MEAN_MOTION":15.02531721,"ECCENTRICITY":0.0001111,"INCLINATION":43.0016,"RA_OF_ASC_NODE":232.1171,"ARG_OF_PERICENTER":264.4435,"MEAN_ANOMALY":95.628,"EPHEMERIS_TYPE":0,"CLASSIFICATION_TYPE":"U","NORAD_CAT_ID":54824,"ELEMENT_SET_NO":999,"REV_AT_EPOCH":17422,"BSTAR":6.4224e-5,"MEAN_MOTION_DOT":6.64e-6,"MEAN_MOTION_DDOT":0},{"OBJECT_NAME":"STARLINK-5107","OBJECT_ID":"2022-177G","EPOCH":"2026-02-19T12:51:18.590112","MEAN_MOTION":15.02535941,"ECCENTRICITY":0.0001361,"INCLINATION":42.9998,"RA_OF_ASC_NODE":232.0477,"ARG_OF_PERICENTER":262.7085,"MEAN_ANOMALY":97.3603,"EPHEMERIS_TYPE":0,"CLASSIFICATION_TYPE":"U","NORAD_CAT_ID":54826,"ELEMENT_SET_NO":999,"REV_AT_EPOCH":17422,"BSTAR":4.3644115e-5,"MEAN_MOTION_DOT":3.86e-6,"MEAN_MOTION_DDOT":0},{"OBJECT_NAME":"STARLINK-5383","OBJECT_ID":"2022-177H","EPOCH":"2026-02-19T12:40:07.433184","MEAN_MOTION":15.02534512,"ECCENTRICITY":0.00012261,"INCLINATION":43.0023,"RA_OF_ASC_NODE":231.988,"ARG_OF_PERICENTER":275.3281,"MEAN_ANOMALY":84.7422,"EPHEMERIS_TYPE":0,"CLASSIFICATION_TYPE":"U","NORAD_CAT_ID":54827,"ELEMENT_SET_NO":999,"REV_AT_EPOCH":17423,"BSTAR":7.961994e-6,"MEAN_MOTION_DOT":-9.6e-7,"MEAN_MOTION_DDOT":0},{"OBJECT_NAME":"STARLINK-5381","OBJECT_ID":"2022-177J","EPOCH":"2026-02-19T20:33:58.162752","MEAN_MOTION":15.02533888,"ECCENTRICITY":0.00012959,"INCLINATION":43.0024,"RA_OF_ASC_NODE":230.1605,"ARG_OF_PERICENTER":266.2533,"MEAN_ANOMALY":93.8161,"EPHEMERIS_TYPE":0,"CLASSIFICATION_TYPE":"U","NORAD_CAT_ID":54828,"ELEMENT_SET_NO":999,"REV_AT_EPOCH":17427,"BSTAR":-1.018055e-6,"MEAN_MOTION_DOT":-2.17e-6,"MEAN_MOTION_DDOT":0},{"OBJECT_NAME":"STARLINK-5394","OBJECT_ID":"2022-177L","EPOCH":"2026-02-19T20:25:58.667808","MEAN_MOTION":15.02535223,"ECCENTRICITY":0.0001115,"INCLINATION":43.0008,"RA_OF_ASC_NODE":230.1162,"ARG_OF_PERICENTER":252.0579,"MEAN_ANOMALY":108.0142,"EPHEMERIS_TYPE":0,"CLASSIFICATION_TYPE":"U","NORAD_CAT_ID":54830,"ELEMENT_SET_NO":999,"REV_AT_EPOCH":17427,"BSTAR":2.0082335e-5,"MEAN_MOTION_DOT":6.8e-7,"MEAN_MOTION_DDOT":0},{"OBJECT_NAME":"STARLINK-5395","OBJECT_ID":"2022-177M","EPOCH":"2026-02-19T12:54:31.271616","MEAN_MOTION":15.02530943,"ECCENTRICITY":0.00021681,"INCLINATION":43.0039,"RA_OF_ASC_NODE":232.0635,"ARG_OF_PERICENTER":286.7296,"MEAN_ANOMALY":73.3309,"EPHEMERIS_TYPE":0,"CLASSIFICATION_TYPE":"U","NORAD_CAT_ID":54831,"ELEMENT_SET_NO":999,"REV_AT_EPOCH":17422,"BSTAR":-4.0398851e-5,"MEAN_MOTION_DOT":-7.49e-6,"MEAN_MOTION_DDOT":0},{"OBJECT_NAME":"STARLINK-5386","OBJECT_ID":"2022-177Q","EPOCH":"2026-02-19T20:24:23.023872","MEAN_MOTION":15.02533993,"ECCENTRICITY":0.00019533,"INCLINATION":43.0054,"RA_OF_ASC_NODE":230.1087,"ARG_OF_PERICENTER":286.9833,"MEAN_ANOMALY":73.0795,"EPHEMERIS_TYPE":0,"CLASSIFICATION_TYPE":"U","NORAD_CAT_ID":54834,"ELEMENT_SET_NO":999,"REV_AT_EPOCH":17428,"BSTAR":-3.4963779e-5,"MEAN_MOTION_DOT":-6.76e-6,"MEAN_MOTION_DDOT":0},{"OBJECT_NAME":"STARLINK-5389","OBJECT_ID":"2022-177R","EPOCH":"2026-02-19T20:30:46.413504","MEAN_MOTION":15.02535351,"ECCENTRICITY":0.00011192,"INCLINATION":43.0003,"RA_OF_ASC_NODE":230.1425,"ARG_OF_PERICENTER":266.1757,"MEAN_ANOMALY":93.8957,"EPHEMERIS_TYPE":0,"CLASSIFICATION_TYPE":"U","NORAD_CAT_ID":54835,"ELEMENT_SET_NO":999,"REV_AT_EPOCH":17427,"BSTAR":-8.016591e-6,"MEAN_MOTION_DOT":-3.12e-6,"MEAN_MOTION_DDOT":0},{"OBJECT_NAME":"STARLINK-5384","OBJECT_ID":"2022-177S","EPOCH":"2026-02-19T22:00:03.000096","MEAN_MOTION":15.11144337,"ECCENTRICITY":0.00018121,"INCLINATION":42.9999,"RA_OF_ASC_NODE":229.5578,"ARG_OF_PERICENTER":299.559,"MEAN_ANOMALY":137.4891,"EPHEMERIS_TYPE":0,"CLASSIFICATION_TYPE":"U","NORAD_CAT_ID":54836,"ELEMENT_SET_NO":999,"REV_AT_EPOCH":573,"BSTAR":0.0071505197,"MEAN_MOTION_DOT":0.00123924,"MEAN_MOTION_DDOT":0},{"OBJECT_NAME":"STARLINK-5369","OBJECT_ID":"2022-177T","EPOCH":"2026-02-19T20:21:11.243520","MEAN_MOTION":15.02528491,"ECCENTRICITY":0.00010337,"INCLINATION":42.9999,"RA_OF_ASC_NODE":230.0902,"ARG_OF_PERICENTER":249.022,"MEAN_ANOMALY":111.0511,"EPHEMERIS_TYPE":0,"CLASSIFICATION_TYPE":"U","NORAD_CAT_ID":54837,"ELEMENT_SET_NO":999,"REV_AT_EPOCH":17427,"BSTAR":-0.00011214265,"MEAN_MOTION_DOT":-1.718e-5,"MEAN_MOTION_DDOT":0},{"OBJECT_NAME":"STARLINK-5372","OBJECT_ID":"2022-177U","EPOCH":"2026-02-19T13:47:06.750816","MEAN_MOTION":15.02522931,"ECCENTRICITY":0.0001021,"INCLINATION":43.0014,"RA_OF_ASC_NODE":231.479,"ARG_OF_PERICENTER":262.2555,"MEAN_ANOMALY":97.8171,"EPHEMERIS_TYPE":0,"CLASSIFICATION_TYPE":"U","NORAD_CAT_ID":54838,"ELEMENT_SET_NO":999,"REV_AT_EPOCH":17423,"BSTAR":-5.7634e-5,"MEAN_MOTION_DOT":-9.82e-6,"MEAN_MOTION_DDOT":0}]
