STARLINK-5424           
1 54811U 22175BF  26050.57277882  .00011532  00000+0  74092-3 0  9991
2 54811  53.2174 105.4950 0001295 101.2637 258.8501 15.08866339177467
STARLINK-5382           
1 54820U 22177A   26050.48469512 -.00000097  00000+0  78765-5 0  9994
2 54820  43.0015 232.5279 0001069 255.2231 104.8493 15.02538003174211
STARLINK-5385           
1 54821U 22177B   26050.53896306  .00000220  00000+0  31385-4 0  9999
2 54821  43.0021 232.0787 0001124 261.2702  98.8013 15.02537125174225
STARLINK-5101           
1 54822U 22177C   26050.53452190  .00000249  00000+0  33528-4 0  9991
2 54822  43.0013 232.0404 0001108 255.5632 104.5087 15.02535673174225
STARLINK-5106           
1 54823U 22177D   26050.54784093  .00000069  00000+0  20207-4 0  9993
2 54823  42.9987 232.1370 0000954 188.0486 172.0341 15.02535283174222
STARLINK-4643           
1 54824U 22177E   26050.54451296  .00000664  00000+0  64224-4 0  9998
2 54824  43.0016 232.1171 0001111 264.4435  95.6280 15.02531721174221
STARLINK-5107           
1 54826U 22177G   26050.53563183  .00000386  00000+0  43644-4 0  9992
2 54826  42.9998 232.0477 0001361 262.7085  97.3603 15.02535941174223
STARLINK-5383           
1 54827U 22177H   26050.52786381 -.00000096  00000+0  79620-5 0  9992
2 54827  43.0023 231.9880 0001226 275.3281  84.7422 15.02534512174232
STARLINK-5381           
1 54828U 22177J   26050.85692318 -.00000217  00000+0 -10181-5 0  9998
2 54828  43.0024 230.1605 0001295 266.2533  93.8161 15.02533888174275
STARLINK-5394           
1 54830U 22177L   26050.85137347  .00000068  00000+0  20082-4 0  9999
2 54830  43.0008 230.1162 0001115 252.0579 108.0142 15.02535223174275
STARLINK-5395           
1 54831U 22177M   26050.53786194 -.00000749  00000+0 -40399-4 0  9996
2 54831  43.0039 232.0635 0002168 286.7296  73.3309 15.02530943174223
STARLINK-5386           
1 54834U 22177Q   26050.85026648 -.00000676  00000+0 -34964-4 0  9995
2 54834  43.0054 230.1087 0001953 286.9833  73.0795 15.02533993174283
STARLINK-5389           
1 54835U 22177R   26050.85470386 -.00000312  00000+0 -80166-5 0  9991
2 54835  43.0003 230.1425 0001119 266.1757  93.8957 15.02535351174272
STARLINK-5384           
1 54836U 22177S   26050.91670139  .00123924  00000+0  71505-2 0  9994
2 54836  42.9999 229.5578 0001812 299.5590 137.4891 15.11144337  5737
STARLINK-5369           
1 54837U 22177T   26050.84804680 -.00001718  00000+0 -11214-3 0  9997
2 54837  42.9999 230.0902 0001033 249.0220 111.0511 15.02528491174271
STARLINK-5372           
1 54838U 22177U   26050.57438369 -.00000982  00000+0 -57634-4 0  9994
2 54838  43.0014 231.4790 0001021 262.2555  97.8171 15.02522931174239
